ALOS (DAICHI)           
1 28931U 06002A   26021.86767687  .00003058  00000+0  52242-3 0  9990
2 28931  98.1151 338.0876 0002234  83.2103 276.9357 14.69633773 66609
H-2A R/B                
1 28932U 06002B   26022.33834626  .00010836  00000+0  55590-3 0  9993
2 28932  98.2345 165.4369 0053991  39.9499 320.5685 15.15458604 87419
RESURS-DK 1             
1 29228U 06021A   26022.24419066  .00004574  00000+0  26860-3 0  9990
2 29228  69.9349 357.1377 0005166 220.1543 139.9241 15.12431398 80502
CZ-4B R/B               
1 29507U 06046C   26022.09551896  .00007325  00000+0  37511-3 0  9990
2 29507  97.5675  67.1253 0035146  70.0869 290.4145 15.16355890 52989
CZ-2C R/B               
1 31114U 07010B   26022.29904980  .00000275  00000+0  14490-3 0  9995
2 31114  98.3971 137.9090 0060047  69.5909 291.1704 14.20228308973130
COSMO-SKYMED 1          
1 31598U 07023A   26022.32289847  .00006104  00000+0  54754-3 0  9991
2 31598  97.8838 212.9993 0001050  89.3399 270.7942 14.96125258  7970
COSMOS 2428             
1 31792U 07029A   26022.23441176  .00000485  00000+0  28624-3 0  9991
2 31792  70.9401 300.8614 0006132 329.9155  30.1613 14.12917097957537
SL-16 R/B               
1 31793U 07029B   26022.13111464 -.00000084  00000+0 -18620-4 0  9998
2 31793  70.9744 270.2543 0002033 272.8388 239.3527 14.14822344958786
KORONAS-FOTON           
1 33504U 09003A   26022.25742089  .00014209  00000+0  33077-3 0  9994
2 33504  82.4332 324.0963 0010163 336.1801  23.8974 15.42098645938589
CZ-2C R/B               
1 37731U 11030B   26021.86098749  .00002478  00000+0  31863-3 0  9992
2 37731  97.8474 340.0949 0053594 141.4462 273.0125 14.81036556783163
H-2A R/B                
1 38341U 12025E   26022.21080397  .00004680  00000+0  42806-3 0  9991
2 38341  98.4655 345.5819 0046043 104.1386 256.4954 14.94739663741271
SHIJIAN-16 (SJ-16)      
1 39358U 13057A   26022.30234020  .00001345  00000+0  13460-3 0  9999
2 39358  74.9722 272.8967 0017554 225.9479 134.0265 14.92182907664585
