CCSDS_OMM_VERS = 2.0
CREATION_DATE  = 
ORIGINATOR     = 

OBJECT_NAME    = ALOS (DAICHI)
OBJECT_ID      = 2006-002A
CENTER_NAME    = EARTH
REF_FRAME      = TEME
TIME_SYSTEM    = UTC
MEAN_ELEMENT_THEORY = SGP/SGP4

EPOCH          = 2026-01-21T20:49:27.281568
MEAN_MOTION    = 14.69633773
ECCENTRICITY   = .00022345
INCLINATION    = 98.1151
RA_OF_ASC_NODE = 338.0876
ARG_OF_PERICENTER = 83.2103
MEAN_ANOMALY   = 276.9357

EPHEMERIS_TYPE = 0
CLASSIFICATION_TYPE = U
NORAD_CAT_ID   = 28931
ELEMENT_SET_NO = 999
REV_AT_EPOCH   = 6660
BSTAR          = .52242142E-3
MEAN_MOTION_DOT = .3058E-4
MEAN_MOTION_DDOT = 0

CCSDS_OMM_VERS = 2.0
CREATION_DATE  = 
ORIGINATOR     = 

OBJECT_NAME    = H-2A R/B
OBJECT_ID      = 2006-002B
CENTER_NAME    = EARTH
REF_FRAME      = TEME
TIME_SYSTEM    = UTC
MEAN_ELEMENT_THEORY = SGP/SGP4

EPOCH          = 2026-01-22T08:07:13.116864
MEAN_MOTION    = 15.15458604
ECCENTRICITY   = .00539915
INCLINATION    = 98.2345
RA_OF_ASC_NODE = 165.4369
ARG_OF_PERICENTER = 39.9499
MEAN_ANOMALY   = 320.5685

EPHEMERIS_TYPE = 0
CLASSIFICATION_TYPE = U
NORAD_CAT_ID   = 28932
ELEMENT_SET_NO = 999
REV_AT_EPOCH   = 8741
BSTAR          = .55589916E-3
MEAN_MOTION_DOT = .10836E-3
MEAN_MOTION_DDOT = 0

CCSDS_OMM_VERS = 2.0
CREATION_DATE  = 
ORIGINATOR     = 

OBJECT_NAME    = RESURS-DK 1
OBJECT_ID      = 2006-021A
CENTER_NAME    = EARTH
REF_FRAME      = TEME
TIME_SYSTEM    = UTC
MEAN_ELEMENT_THEORY = SGP/SGP4

EPOCH          = 2026-01-22T05:51:38.073024
MEAN_MOTION    = 15.12431398
ECCENTRICITY   = .00051669
INCLINATION    = 69.9349
RA_OF_ASC_NODE = 357.1377
ARG_OF_PERICENTER = 220.1543
MEAN_ANOMALY   = 139.9241

EPHEMERIS_TYPE = 0
CLASSIFICATION_TYPE = U
NORAD_CAT_ID   = 29228
ELEMENT_SET_NO = 999
REV_AT_EPOCH   = 8050
BSTAR          = .26859565E-3
MEAN_MOTION_DOT = .4574E-4
MEAN_MOTION_DDOT = 0

CCSDS_OMM_VERS = 2.0
CREATION_DATE  = 
ORIGINATOR     = 

OBJECT_NAME    = CZ-4B R/B
OBJECT_ID      = 2006-046C
CENTER_NAME    = EARTH
REF_FRAME      = TEME
TIME_SYSTEM    = UTC
MEAN_ELEMENT_THEORY = SGP/SGP4

EPOCH          = 2026-01-22T02:17:32.838144
MEAN_MOTION    = 15.16355890
ECCENTRICITY   = .00351461
INCLINATION    = 97.5675
RA_OF_ASC_NODE = 67.1253
ARG_OF_PERICENTER = 70.0869
MEAN_ANOMALY   = 290.4145

EPHEMERIS_TYPE = 0
CLASSIFICATION_TYPE = U
NORAD_CAT_ID   = 29507
ELEMENT_SET_NO = 999
REV_AT_EPOCH   = 5298
BSTAR          = .37510783E-3
MEAN_MOTION_DOT = .7325E-4
MEAN_MOTION_DDOT = 0

CCSDS_OMM_VERS = 2.0
CREATION_DATE  = 
ORIGINATOR     = 

OBJECT_NAME    = CZ-2C R/B
OBJECT_ID      = 2007-010B
CENTER_NAME    = EARTH
REF_FRAME      = TEME
TIME_SYSTEM    = UTC
MEAN_ELEMENT_THEORY = SGP/SGP4

EPOCH          = 2026-01-22T07:10:37.902720
MEAN_MOTION    = 14.20228308
ECCENTRICITY   = .00600476
INCLINATION    = 98.3971
RA_OF_ASC_NODE = 137.9090
ARG_OF_PERICENTER = 69.5909
MEAN_ANOMALY   = 291.1704

EPHEMERIS_TYPE = 0
CLASSIFICATION_TYPE = U
NORAD_CAT_ID   = 31114
ELEMENT_SET_NO = 999
REV_AT_EPOCH   = 97313
BSTAR          = .1449007E-3
MEAN_MOTION_DOT = .275E-5
MEAN_MOTION_DDOT = 0

CCSDS_OMM_VERS = 2.0
CREATION_DATE  = 
ORIGINATOR     = 

OBJECT_NAME    = COSMO-SKYMED 1
OBJECT_ID      = 2007-023A
CENTER_NAME    = EARTH
REF_FRAME      = TEME
TIME_SYSTEM    = UTC
MEAN_ELEMENT_THEORY = SGP/SGP4

EPOCH          = 2026-01-22T07:44:58.427808
MEAN_MOTION    = 14.96125258
ECCENTRICITY   = .00010505
INCLINATION    = 97.8838
RA_OF_ASC_NODE = 212.9993
ARG_OF_PERICENTER = 89.3399
MEAN_ANOMALY   = 270.7942

EPHEMERIS_TYPE = 0
CLASSIFICATION_TYPE = U
NORAD_CAT_ID   = 31598
ELEMENT_SET_NO = 999
REV_AT_EPOCH   = 797
BSTAR          = .54754288E-3
MEAN_MOTION_DOT = .6104E-4
MEAN_MOTION_DDOT = 0

CCSDS_OMM_VERS = 2.0
CREATION_DATE  = 
ORIGINATOR     = 

OBJECT_NAME    = COSMOS 2428
OBJECT_ID      = 2007-029A
CENTER_NAME    = EARTH
REF_FRAME      = TEME
TIME_SYSTEM    = UTC
MEAN_ELEMENT_THEORY = SGP/SGP4

EPOCH          = 2026-01-22T05:37:33.176064
MEAN_MOTION    = 14.12917097
ECCENTRICITY   = .00061326
INCLINATION    = 70.9401
RA_OF_ASC_NODE = 300.8614
ARG_OF_PERICENTER = 329.9155
MEAN_ANOMALY   = 30.1613

EPHEMERIS_TYPE = 0
CLASSIFICATION_TYPE = U
NORAD_CAT_ID   = 31792
ELEMENT_SET_NO = 999
REV_AT_EPOCH   = 95753
BSTAR          = .28624155E-3
MEAN_MOTION_DOT = .485E-5
MEAN_MOTION_DDOT = 0

CCSDS_OMM_VERS = 2.0
CREATION_DATE  = 
ORIGINATOR     = 

OBJECT_NAME    = SL-16 R/B
OBJECT_ID      = 2007-029B
CENTER_NAME    = EARTH
REF_FRAME      = TEME
TIME_SYSTEM    = UTC
MEAN_ELEMENT_THEORY = SGP/SGP4

EPOCH          = 2026-01-22T03:08:48.304896
MEAN_MOTION    = 14.14822344
ECCENTRICITY   = .00020333
INCLINATION    = 70.9744
RA_OF_ASC_NODE = 270.2543
ARG_OF_PERICENTER = 272.8388
MEAN_ANOMALY   = 239.3527

EPHEMERIS_TYPE = 0
CLASSIFICATION_TYPE = U
NORAD_CAT_ID   = 31793
ELEMENT_SET_NO = 999
REV_AT_EPOCH   = 95878
BSTAR          = -.18620327E-4
MEAN_MOTION_DOT = -.84E-6
MEAN_MOTION_DDOT = 0

CCSDS_OMM_VERS = 2.0
CREATION_DATE  = 
ORIGINATOR     = 

OBJECT_NAME    = KORONAS-FOTON
OBJECT_ID      = 2009-003A
CENTER_NAME    = EARTH
REF_FRAME      = TEME
TIME_SYSTEM    = UTC
MEAN_ELEMENT_THEORY = SGP/SGP4

EPOCH          = 2026-01-22T06:10:41.164896
MEAN_MOTION    = 15.42098645
ECCENTRICITY   = .00101631
INCLINATION    = 82.4332
RA_OF_ASC_NODE = 324.0963
ARG_OF_PERICENTER = 336.1801
MEAN_ANOMALY   = 23.8974

EPHEMERIS_TYPE = 0
CLASSIFICATION_TYPE = U
NORAD_CAT_ID   = 33504
ELEMENT_SET_NO = 999
REV_AT_EPOCH   = 93858
BSTAR          = .33076884E-3
MEAN_MOTION_DOT = .14209E-3
MEAN_MOTION_DDOT = 0

CCSDS_OMM_VERS = 2.0
CREATION_DATE  = 
ORIGINATOR     = 

OBJECT_NAME    = CZ-2C R/B
OBJECT_ID      = 2011-030B
CENTER_NAME    = EARTH
REF_FRAME      = TEME
TIME_SYSTEM    = UTC
MEAN_ELEMENT_THEORY = SGP/SGP4

EPOCH          = 2026-01-21T20:39:49.319136
MEAN_MOTION    = 14.81036556
ECCENTRICITY   = .00535946
INCLINATION    = 97.8474
RA_OF_ASC_NODE = 340.0949
ARG_OF_PERICENTER = 141.4462
MEAN_ANOMALY   = 273.0125

EPHEMERIS_TYPE = 0
CLASSIFICATION_TYPE = U
NORAD_CAT_ID   = 37731
ELEMENT_SET_NO = 999
REV_AT_EPOCH   = 78316
BSTAR          = .31862646E-3
MEAN_MOTION_DOT = .2478E-4
MEAN_MOTION_DDOT = 0

CCSDS_OMM_VERS = 2.0
CREATION_DATE  = 
ORIGINATOR     = 

OBJECT_NAME    = H-2A R/B
OBJECT_ID      = 2012-025E
CENTER_NAME    = EARTH
REF_FRAME      = TEME
TIME_SYSTEM    = UTC
MEAN_ELEMENT_THEORY = SGP/SGP4

EPOCH          = 2026-01-22T05:03:33.463008
MEAN_MOTION    = 14.94739663
ECCENTRICITY   = .00460433
INCLINATION    = 98.4655
RA_OF_ASC_NODE = 345.5819
ARG_OF_PERICENTER = 104.1386
MEAN_ANOMALY   = 256.4954

EPHEMERIS_TYPE = 0
CLASSIFICATION_TYPE = U
NORAD_CAT_ID   = 38341
ELEMENT_SET_NO = 999
REV_AT_EPOCH   = 74127
BSTAR          = .42805722E-3
MEAN_MOTION_DOT = .468E-4
MEAN_MOTION_DDOT = 0

CCSDS_OMM_VERS = 2.0
CREATION_DATE  = 
ORIGINATOR     = 

OBJECT_NAME    = SHIJIAN-16 (SJ-16)
OBJECT_ID      = 2013-057A
CENTER_NAME    = EARTH
REF_FRAME      = TEME
TIME_SYSTEM    = UTC
MEAN_ELEMENT_THEORY = SGP/SGP4

EPOCH          = 2026-01-22T07:15:22.193280
MEAN_MOTION    = 14.92182907
ECCENTRICITY   = .00175548
INCLINATION    = 74.9722
RA_OF_ASC_NODE = 272.8967
ARG_OF_PERICENTER = 225.9479
MEAN_ANOMALY   = 134.0265

EPHEMERIS_TYPE = 0
CLASSIFICATION_TYPE = U
NORAD_CAT_ID   = 39358
ELEMENT_SET_NO = 999
REV_AT_EPOCH   = 66458
BSTAR          = .13459692E-3
MEAN_MOTION_DOT = .1345E-4
MEAN_MOTION_DDOT = 0

